{
  "norad_id": 66093,
  "name": "STARLINK-35500",
  "history": [
    {
      "epoch": "2026-03-28T05:25:27.885216Z",
      "apogee_km": 475.94026308320554,
      "perigee_km": 474.3777115980929,
      "latitude_deg": -2.9081213180578555e-05,
      "longitude_deg": 110.68428156179775,
      "height_km": 476.0542321359525,
      "semi_major_axis_km": 6853.295987340649,
      "eccentricity": 0.000114,
      "inclination_deg": 53.16,
      "raan_deg": 17.7,
      "arg_perigee_deg": 89.7786,
      "mean_anomaly_deg": 270.3345,
      "mean_motion_rev_day": 15.30218783
    },
    {
      "epoch": "2026-03-29T04:56:14.465472Z",
      "apogee_km": 475.91958662305115,
      "perigee_km": 474.1583204029994,
      "latitude_deg": -2.8217407733572817e-05,
      "longitude_deg": 112.46875551760466,
      "height_km": 475.658380131005,
      "semi_major_axis_km": 6853.175953513025,
      "eccentricity": 0.0001285,
      "inclination_deg": 53.1598,
      "raan_deg": 13.1442,
      "arg_perigee_deg": 71.548,
      "mean_anomaly_deg": 288.566,
      "mean_motion_rev_day": 15.30258986
    },
    {
      "epoch": "2026-03-30T01:18:56.678688Z",
      "apogee_km": 476.3153191728261,
      "perigee_km": 474.2990358957968,
      "latitude_deg": -1.8743828420627683e-05,
      "longitude_deg": 162.01526379905113,
      "height_km": 476.22992443205175,
      "semi_major_axis_km": 6853.444177534311,
      "eccentricity": 0.0001471,
      "inclination_deg": 53.1605,
      "raan_deg": 9.2035,
      "arg_perigee_deg": 91.4156,
      "mean_anomaly_deg": 268.7013,
      "mean_motion_rev_day": 15.30169152
    },
    {
      "epoch": "2026-03-30T01:18:56.679552Z",
      "apogee_km": 476.3153877072682,
      "perigee_km": 474.2989673613547,
      "latitude_deg": -1.9666330383902153e-05,
      "longitude_deg": 162.01525950190262,
      "height_km": 476.2299261251609,
      "semi_major_axis_km": 6853.444177534311,
      "eccentricity": 0.00014711,
      "inclination_deg": 53.1605,
      "raan_deg": 9.2035,
      "arg_perigee_deg": 91.4156,
      "mean_anomaly_deg": 268.7013,
      "mean_motion_rev_day": 15.30169152
    },
    {
      "epoch": "2026-03-30T18:33:32.419296Z",
      "apogee_km": 476.02606310173906,
      "perigee_km": 474.32479682412486,
      "latitude_deg": -5.0648040080300725e-05,
      "longitude_deg": -100.6809339179927,
      "height_km": 476.133016907466,
      "semi_major_axis_km": 6853.312429962932,
      "eccentricity": 0.00012412,
      "inclination_deg": 53.1603,
      "raan_deg": 5.8644,
      "arg_perigee_deg": 94.0059,
      "mean_anomaly_deg": 266.1083,
      "mean_motion_rev_day": 15.30213276
    },
    {
      "epoch": "2026-03-31T03:57:51.731712Z",
      "apogee_km": 475.73911990065153,
      "perigee_km": 474.7064556478299,
      "latitude_deg": 1.0498355007702e-05,
      "longitude_deg": 116.03437913463985,
      "height_km": 476.0367299263766,
      "semi_major_axis_km": 6853.35978777424,
      "eccentricity": 7.534e-05,
      "inclination_deg": 53.1612,
      "raan_deg": 4.0464,
      "arg_perigee_deg": 80.5287,
      "mean_anomaly_deg": 279.5799,
      "mean_motion_rev_day": 15.30197415
    },
    {
      "epoch": "2026-04-01T11:18:56.013696Z",
      "apogee_km": 476.001115645915,
      "perigee_km": 474.3097230768153,
      "latitude_deg": -6.006142811724173e-06,
      "longitude_deg": -1.5882206071705731,
      "height_km": 476.08495833162823,
      "semi_major_axis_km": 6853.292419361364,
      "eccentricity": 0.0001234,
      "inclination_deg": 53.1621,
      "raan_deg": 357.9792,
      "arg_perigee_deg": 92.1129,
      "mean_anomaly_deg": 268.0013,
      "mean_motion_rev_day": 15.30219978
    },
    {
      "epoch": "2026-04-02T10:49:44.164704Z",
      "apogee_km": 475.97031925920055,
      "perigee_km": 474.342113856811,
      "latitude_deg": -6.427531362018573e-05,
      "longitude_deg": 0.1943477389740707,
      "height_km": 476.0821704300571,
      "semi_major_axis_km": 6853.293216558006,
      "eccentricity": 0.00011879,
      "inclination_deg": 53.1613,
      "raan_deg": 353.4281,
      "arg_perigee_deg": 91.9435,
      "mean_anomaly_deg": 268.1701,
      "mean_motion_rev_day": 15.30219711
    },
    {
      "epoch": "2026-04-02T23:22:08.862816Z",
      "apogee_km": 476.6004121735223,
      "perigee_km": 473.44124347805064,
      "latitude_deg": -4.266378356259524e-05,
      "longitude_deg": 169.15134794091603,
      "height_km": 475.6688814850498,
      "semi_major_axis_km": 6853.157827825786,
      "eccentricity": 0.00023049,
      "inclination_deg": 53.1619,
      "raan_deg": 351.003,
      "arg_perigee_deg": 80.9371,
      "mean_anomaly_deg": 279.189,
      "mean_motion_rev_day": 15.30265057
    },
    {
      "epoch": "2026-04-03T21:18:54.571104Z",
      "apogee_km": 476.1658532254078,
      "perigee_km": 474.24006469693904,
      "latitude_deg": 6.624581088681195e-05,
      "longitude_deg": -165.18661359881932,
      "height_km": 476.2362196459713,
      "semi_major_axis_km": 6853.339958961173,
      "eccentricity": 0.0001405,
      "inclination_deg": 53.1611,
      "raan_deg": 346.7567,
      "arg_perigee_deg": 98.0743,
      "mean_anomaly_deg": 262.0418,
      "mean_motion_rev_day": 15.30204056
    },
    {
      "epoch": "2026-04-04T20:49:42.538944Z",
      "apogee_km": 476.40204995249496,
      "perigee_km": 474.2569149434894,
      "latitude_deg": 4.115772296201122e-05,
      "longitude_deg": -163.40405704131183,
      "height_km": 475.8501999655289,
      "semi_major_axis_km": 6853.466482447992,
      "eccentricity": 0.0001565,
      "inclination_deg": 53.1596,
      "raan_deg": 342.2048,
      "arg_perigee_deg": 69.4196,
      "mean_anomaly_deg": 290.6973,
      "mean_motion_rev_day": 15.30161682
    },
    {
      "epoch": "2026-04-05T14:04:18.699456Z",
      "apogee_km": 476.2079021712452,
      "perigee_km": 474.3197902381153,
      "latitude_deg": -3.474917140025727e-05,
      "longitude_deg": -66.10154393955263,
      "height_km": 476.31760753479006,
      "semi_major_axis_km": 6853.40084620468,
      "eccentricity": 0.00013775,
      "inclination_deg": 53.1595,
      "raan_deg": 338.8662,
      "arg_perigee_deg": 99.5032,
      "mean_anomaly_deg": 260.6124,
      "mean_motion_rev_day": 15.30183664
    }
  ]
}